SHIYAN-1 (SY-1)         
1 28220U 04012A   26068.73650539  .00016393  00000+0  54854-3 0  9991
2 28220  97.8764 140.5238 0005873  23.6952 336.4557 15.31043463195862
STARLINK-31440          
1 58999U 24036B   26068.34151352 -.00000581  00000+0 -74886-5 0  9994
2 58999  53.1609  79.4817 0001201  94.6236 265.4902 15.30189209114468
